[
    {
        "Altitude(m)": 611965.1805992287,
        "Argument of Periapsis(deg)": 0.0,
        "Eccentricity": 0.0,
        "Inclination(deg)": 60.0,
        "Latitude(deg)": 59.140147145397805,
        "Longitude(deg)": -136.03005689974208,
        "Mean Anomaly(deg)": 81.8182,
        "RAAN(deg)": 250.00000000000003,
        "Satellite Name": "Test1 1105",
        "Satellite Number": 1105,
        "Semi-Major Axis(m)": 6980739.136638005,
        "Time(s)": 0
    },
    {
        "Altitude(m)": 611995.805629554,
        "Argument of Periapsis(deg)": 0.00010418945913296404,
        "Eccentricity": 0.0,
        "Inclination(deg)": 60.0,
        "Latitude(deg)": 59.283245649795084,
        "Longitude(deg)": -134.89669451073806,
        "Mean Anomaly(deg)": 82.43830614546187,
        "RAAN(deg)": 249.99957995086027,
        "Satellite Name": "Test1 1105",
        "Satellite Number": 1105,
        "Semi-Major Axis(m)": 6980739.136638005,
        "Time(s)": 10
    }
]